{"type": "FeatureCollection", "features": [ {"type": "Feature", "properties": {"norad_id": 17070, "name": "POLAR BEAR", "group": "nnss", "lat": 25.963728373757476, "lon": 3.2183502834685043, "alt_km": 965.2030063752873, "timestamp": "2025-12-21T22:41:41.728638+00:00", "meta": {"OBJECT_NAME": "POLAR BEAR", "OBJECT_ID": "1986-088A", "EPOCH": "2025-12-21T13:30:27.463104", "MEAN_MOTION": 13.75252569, "ECCENTRICITY": 0.00412874, "INCLINATION": 89.617, "RA_OF_ASC_NODE": 183.4204, "ARG_OF_PERICENTER": 93.8396, "MEAN_ANOMALY": 325.6089, "EPHEMERIS_TYPE": 0, "CLASSIFICATION_TYPE": "U", "NORAD_CAT_ID": 17070, "ELEMENT_SET_NO": 999, "REV_AT_EPOCH": 96100, "BSTAR": 9.0606714e-05, "MEAN_MOTION_DOT": 9.9e-07, "MEAN_MOTION_DDOT": 0}, "tle": {"line1": "1 17070U 86088A   25355.56281786  .00000099  00000+0  90607-4 0  9991", "line2": "2 17070  89.6170 183.4204 0041287  93.8396 325.6089 13.75252569961004"}}, "geometry": {"type": "Point", "coordinates": [3.2183502834685043, 25.963728373757476]}}, {"type": "Feature", "properties": {"norad_id": 18361, "name": "OSCAR 27", "group": "nnss", "lat": 54.33189597424298, "lon": -99.86206779126042, "alt_km": 1060.8966391967833, "timestamp": "2025-12-21T22:41:41.728648+00:00", "meta": {"OBJECT_NAME": "OSCAR 27", "OBJECT_ID": "1987-080A", "EPOCH": "2025-12-21T11:21:05.959296", "MEAN_MOTION": 13.44908381, "ECCENTRICITY": 0.01036314, "INCLINATION": 90.3739, "RA_OF_ASC_NODE": 79.599, "ARG_OF_PERICENTER": 198.6192, "MEAN_ANOMALY": 161.1154, "EPHEMERIS_TYPE": 0, "CLASSIFICATION_TYPE": "U", "NORAD_CAT_ID": 18361, "ELEMENT_SET_NO": 999, "REV_AT_EPOCH": 87674, "BSTAR": 0.00016373075, "MEAN_MOTION_DOT": 1.07e-06, "MEAN_MOTION_DDOT": 0}, "tle": {"line1": "1 18361U 87080A   25355.47298564  .00000107  00000+0  16373-3 0  9997", "line2": "2 18361  90.3739  79.5990 0103631 198.6192 161.1154 13.44908381876743"}}, "geometry": {"type": "Point", "coordinates": [-99.86206779126042, 54.33189597424298]}}, {"type": "Feature", "properties": {"norad_id": 18362, "name": "OSCAR 29", "group": "nnss", "lat": 57.37577910581704, "lon": -99.33735415609439, "alt_km": 1097.2861943426324, "timestamp": "2025-12-21T22:41:41.728658+00:00", "meta": {"OBJECT_NAME": "OSCAR 29", "OBJECT_ID": "1987-080B", "EPOCH": "2025-12-21T11:25:06.788064", "MEAN_MOTION": 13.44449927, "ECCENTRICITY": 0.01044707, "INCLINATION": 90.3751, "RA_OF_ASC_NODE": 80.0587, "ARG_OF_PERICENTER": 221.8489, "MEAN_ANOMALY": 149.171, "EPHEMERIS_TYPE": 0, "CLASSIFICATION_TYPE": "U", "NORAD_CAT_ID": 18362, "ELEMENT_SET_NO": 999, "REV_AT_EPOCH": 87627, "BSTAR": 0.00015543419, "MEAN_MOTION_DOT": 1.01e-06, "MEAN_MOTION_DDOT": 0}, "tle": {"line1": "1 18362U 87080B   25355.47577301  .00000101  00000+0  15543-3 0  9999", "line2": "2 18362  90.3751  80.0587 0104470 221.8489 149.1710 13.44449927876275"}}, "geometry": {"type": "Point", "coordinates": [-99.33735415609439, 57.37577910581704]}}, {"type": "Feature", "properties": {"norad_id": 19070, "name": "OSCAR 23", "group": "nnss", "lat": 65.45802862117002, "lon": 15.975813999441426, "alt_km": 1143.2524417172463, "timestamp": "2025-12-21T22:41:41.728668+00:00", "meta": {"OBJECT_NAME": "OSCAR 23", "OBJECT_ID": "1988-033A", "EPOCH": "2025-12-21T12:06:05.436576", "MEAN_MOTION": 13.27788556, "ECCENTRICITY": 0.01902426, "INCLINATION": 90.3203, "RA_OF_ASC_NODE": 16.664, "ARG_OF_PERICENTER": 155.5953, "MEAN_ANOMALY": 323.4425, "EPHEMERIS_TYPE": 0, "CLASSIFICATION_TYPE": "U", "NORAD_CAT_ID": 19070, "ELEMENT_SET_NO": 999, "REV_AT_EPOCH": 82369, "BSTAR": 0.0001193184, "MEAN_MOTION_DOT": 6.9e-07, "MEAN_MOTION_DDOT": 0}, "tle": {"line1": "1 19070U 88033A   25355.50422959  .00000069  00000+0  11932-3 0  9998", "line2": "2 19070  90.3203  16.6640 0190242 155.5953 323.4425 13.27788556823693"}}, "geometry": {"type": "Point", "coordinates": [15.975813999441426, 65.45802862117002]}}, {"type": "Feature", "properties": {"norad_id": 19071, "name": "OSCAR 32", "group": "nnss", "lat": -5.113034296932159, "lon": -163.21845746470865, "alt_km": 1053.853117714155, "timestamp": "2025-12-21T22:41:41.728678+00:00", "meta": {"OBJECT_NAME": "OSCAR 32", "OBJECT_ID": "1988-033B", "EPOCH": "2025-12-21T13:18:58.563936", "MEAN_MOTION": 13.27955317, "ECCENTRICITY": 0.01890154, "INCLINATION": 90.3209, "RA_OF_ASC_NODE": 16.7981, "ARG_OF_PERICENTER": 142.37, "MEAN_ANOMALY": 334.0683, "EPHEMERIS_TYPE": 0, "CLASSIFICATION_TYPE": "U", "NORAD_CAT_ID": 19071, "ELEMENT_SET_NO": 999, "REV_AT_EPOCH": 82382, "BSTAR": 0.00014885902, "MEAN_MOTION_DOT": 8.4e-07, "MEAN_MOTION_DDOT": 0}, "tle": {"line1": "1 19071U 88033B   25355.55484449  .00000084  00000+0  14886-3 0  9994", "line2": "2 19071  90.3209  16.7981 0189015 142.3700 334.0683 13.27955317823829"}}, "geometry": {"type": "Point", "coordinates": [-163.21845746470865, -5.113034296932159]}}, {"type": "Feature", "properties": {"norad_id": 19223, "name": "NOVA 2", "group": "nnss", "lat": -34.534697128457715, "lon": -101.72990993111064, "alt_km": 1196.2092187236867, "timestamp": "2025-12-21T22:41:41.728688+00:00", "meta": {"OBJECT_NAME": "NOVA 2", "OBJECT_ID": "1988-052A", "EPOCH": "2025-12-21T12:35:31.602912", "MEAN_MOTION": 13.22936749, "ECCENTRICITY": 0.00298511, "INCLINATION": 89.9869, "RA_OF_ASC_NODE": 78.2616, "ARG_OF_PERICENTER": 352.6219, "MEAN_ANOMALY": 18.401, "EPHEMERIS_TYPE": 0, "CLASSIFICATION_TYPE": "U", "NORAD_CAT_ID": 19223, "ELEMENT_SET_NO": 999, "REV_AT_EPOCH": 81064, "BSTAR": 0.00012002001, "MEAN_MOTION_DOT": 5.9e-07, "MEAN_MOTION_DDOT": 0}, "tle": {"line1": "1 19223U 88052A   25355.52467133  .00000059  00000+0  12002-3 0  9992", "line2": "2 19223  89.9869  78.2616 0029851 352.6219  18.4010 13.22936749810640"}}, "geometry": {"type": "Point", "coordinates": [-101.72990993111064, -34.534697128457715]}}, {"type": "Feature", "properties": {"norad_id": 19419, "name": "OSCAR 25", "group": "nnss", "lat": -42.60053467412132, "lon": -159.7568990260981, "alt_km": 1035.287838725184, "timestamp": "2025-12-21T22:41:41.728698+00:00", "meta": {"OBJECT_NAME": "OSCAR 25", "OBJECT_ID": "1988-074A", "EPOCH": "2025-12-21T13:25:00.075360", "MEAN_MOTION": 13.42624977, "ECCENTRICITY": 0.00949397, "INCLINATION": 90.0338, "RA_OF_ASC_NODE": 20.2729, "ARG_OF_PERICENTER": 220.3142, "MEAN_ANOMALY": 294.6582, "EPHEMERIS_TYPE": 0, "CLASSIFICATION_TYPE": "U", "NORAD_CAT_ID": 19419, "ELEMENT_SET_NO": 999, "REV_AT_EPOCH": 82758, "BSTAR": 0.00015317013, "MEAN_MOTION_DOT": 9.8e-07, "MEAN_MOTION_DDOT": 0}, "tle": {"line1": "1 19419U 88074A   25355.55902865  .00000098  00000+0  15317-3 0  9997", "line2": "2 19419  90.0338  20.2729 0094939 220.3142 294.6582 13.42624977827580"}}, "geometry": {"type": "Point", "coordinates": [-159.7568990260981, -42.60053467412132]}}, {"type": "Feature", "properties": {"norad_id": 19420, "name": "OSCAR 31", "group": "nnss", "lat": 76.05054321372589, "lon": -159.23183432425435, "alt_km": 1115.2057721476394, "timestamp": "2025-12-21T22:41:41.728708+00:00", "meta": {"OBJECT_NAME": "OSCAR 31", "OBJECT_ID": "1988-074B", "EPOCH": "2025-12-21T12:02:25.654848", "MEAN_MOTION": 13.42586133, "ECCENTRICITY": 0.00933082, "INCLINATION": 90.0354, "RA_OF_ASC_NODE": 20.624, "ARG_OF_PERICENTER": 214.619, "MEAN_ANOMALY": 265.9026, "EPHEMERIS_TYPE": 0, "CLASSIFICATION_TYPE": "U", "NORAD_CAT_ID": 19420, "ELEMENT_SET_NO": 999, "REV_AT_EPOCH": 82768, "BSTAR": 0.00014157438, "MEAN_MOTION_DOT": 9.1e-07, "MEAN_MOTION_DDOT": 0}, "tle": {"line1": "1 19420U 88074B   25355.50168582  .00000091  00000+0  14157-3 0  9998", "line2": "2 19420  90.0354  20.6240 0093308 214.6190 265.9026 13.42586133827686"}}, "geometry": {"type": "Point", "coordinates": [-159.23183432425435, 76.05054321372589]}}]}